BEIDOU 3 (C01)          
1 36287U 10001A   20269.53243872 -.00000302  00000-0  00000-0 0  9997
2 36287   1.5285  32.6627 0005580 120.4008 183.9002  1.00271401 39201
BEIDOU 5 (C06)          
1 36828U 10036A   20269.19856513 -.00000214  00000-0  10000-3 0  9996
2 36828  54.1677 182.0590 0100784 234.9756 137.9703  1.00285761 37257
BEIDOU 6 (C04)          
1 37210U 10057A   20269.64945094 -.00000135  00000-0  00000-0 0  9996
2 37210   0.9820  55.8618 0006039 127.3100 215.4981  1.00272602 36323
BEIDOU 7 (C07)          
1 37256U 10068A   20269.48104699 -.00000190  00000-0  00000+0 0  9998
2 37256  51.3142 297.1468 0082538 214.7894 145.4191  1.00280783 35832
BEIDOU 8 (C08)          
1 37384U 11013A   20269.32479825 -.00000170  00000-0  10000-3 0  9993
2 37384  59.4103  60.5820 0051580 201.1323 338.6724  1.00277716 34710
BEIDOU 9 (C09)          
1 37763U 11038A   20269.24647365 -.00000127  00000-0  10000-3 0  9990
2 37763  54.4498 184.4582 0073345 225.0639 139.8270  1.00273642 33688
BEIDOU 10 (C10)         
1 37948U 11073A   20268.54146398 -.00000137  00000-0  10000-3 0  9997
2 37948  51.4112 296.7608 0071793 215.4836 142.6503  1.00273604 32426
BEIDOU 11 (C05)         
1 38091U 12008A   20269.57132705  .00000036  00000-0  00000-0 0  9990
2 38091   1.6827  69.1752 0002187 217.0775 342.9135  1.00270759 31512
BEIDOU 12 (C11)         
1 38250U 12018A   20269.45382986 -.00000115  00000-0  10000-3 0  9996
2 38250  56.7468  14.3676 0022457 238.6692 224.8023  1.86234384 57359
BEIDOU 13 (C12)         
1 38251U 12018B   20269.36003855 -.00000115  00000-0  00000-0 0  9998
2 38251  56.6731  13.7374 0013680 237.7677 207.8374  1.86232698 57357
BEIDOU 15 (C14)         
1 38775U 12050B   20269.42965150 -.00000014  00000-0  00000+0 0  9994
2 38775  55.0942 132.9229 0014184 323.6159   5.4121  1.86232418 54728
BEIDOU 16 (C02)         
1 38953U 12059A   20269.56540126 -.00000198  00000-0  00000-0 0  9992
2 38953   1.3355  84.1952 0006351 260.1067 308.1462  1.00271689 29080
BEIDOU 17 (C31)         
1 40549U 15019A   20269.41560282 -.00000174  00000-0  00000+0 0  9997
2 40549  52.9078 320.0475 0040688 191.8535  98.9822  1.00265330 20116
BEIDOU 18 (C57)         
1 40748U 15037A   20269.49215297 -.00000117  00000-0  00000-0 0  9997
2 40748  55.9383  12.9782 0001359  32.7365  51.3039  1.86232155 35182
BEIDOU 19 (C58)         
1 40749U 15037B   20269.26583286 -.00000116  00000-0  00000-0 0  9998
2 40749  55.9425  12.9732 0002980 288.7761 140.6043  1.86232308 35175
BEIDOU 20 (C18)         
1 40938U 15053A   20269.09485480 -.00000094  00000-0  00000+0 0  9998
2 40938  52.4700 283.0892 0048319 192.2075  16.1968  1.00294956 18395
BEIDOU IGSO-6 (C13)     
1 41434U 16021A   20269.29801063 -.00000134  00000-0  00000-0 0  9993
2 41434  57.1851  59.4505 0040886 203.2060 304.6064  1.00280134 16528
BEIDOU-2 G7 (C03)       
1 41586U 16037A   20269.49884027 -.00000376  00000-0  00000-0 0  9999
2 41586   1.6948  66.9431 0007567   4.9696 222.9186  1.00267262 15824
BEIDOU-3 M1 (C19)       
1 43001U 17069A   20269.15523865 -.00000015  00000-0  00000-0 0  9992
2 43001  55.2485 132.8485 0008608 294.6620   7.0738  1.86231954 19656
BEIDOU-3 M2 (C20)       
1 43002U 17069B   20269.37339713 -.00000014  00000-0  00000-0 0  9993
2 43002  55.2482 132.8757 0008026 319.6936 172.0752  1.86231569 19659
BEIDOU-3 M3 (C27)       
1 43107U 18003A   20269.41128483 -.00000116  00000-0  00000-0 0  9996
2 43107  55.3762  14.1813 0003831  54.9927 268.0487  1.86232678 18416
BEIDOU-3 M4 (C28)       
1 43108U 18003B   20269.44543112 -.00000116  00000-0  00000-0 0  9990
2 43108  55.3684  14.1715 0003754 223.4520 167.6406  1.86232744 18427
BEIDOU-3 M5 (C21)       
1 43207U 18018A   20268.77280621 -.00000017  00000-0  00000-0 0  9994
2 43207  55.2073 132.9954 0005733 350.8312   9.2413  1.86231714 17799
BEIDOU-3 M6 (C22)       
1 43208U 18018B   20268.83957663 -.00000017  00000-0  00000-0 0  9999
2 43208  55.2068 132.9981 0006466 309.8563  50.1698  1.86231625 17791
BEIDOU-3 M7 (C29)       
1 43245U 18029A   20268.94096044 -.00000115  00000-0  00000+0 0  9999
2 43245  55.3197  12.0018 0000914 185.4469  92.3236  1.86232846 16948
BEIDOU-3 M8 (C30)       
1 43246U 18029B   20269.41776284 -.00000118  00000-0  10000-3 0  9992
2 43246  55.3151  12.0177 0002971 334.9052 308.4773  1.86232671 16942
BEIDOU IGSO-7 (C16)     
1 43539U 18057A   20268.81213331 -.00000171  00000-0  00000-0 0  9995
2 43539  55.0490 181.3551 0032198 217.2499  10.4318  1.00295409  8184
BEIDOU-3 M9 (C23)       
1 43581U 18062A   20269.32187480  .00000030  00000-0  00000-0 0  9993
2 43581  54.5220 253.7017 0006550 265.3476 163.3190  1.86231872 14696
BEIDOU-3 M10 (C24)      
1 43582U 18062B   20269.34586078  .00000030  00000-0  00000-0 0  9992
2 43582  54.5203 253.6908 0005364 317.9353 217.8333  1.86232295 14690
BEIDOU-3 M11 (C25)      
1 43602U 18067A   20269.23603031  .00000030  00000-0  00000-0 0  9997
2 43602  54.5925 252.2563 0006537 341.8776 163.0512  1.86231638 14189
BEIDOU-3 M12 (C26)      
1 43603U 18067B   20269.45714405  .00000028  00000-0  00000+0 0  9996
2 43603  54.5903 252.2151 0004394 322.4194 241.2733  1.86231576 14205
BEIDOU-3 M13 (C32)      
1 43622U 18072A   20269.30984164 -.00000014  00000-0  00000-0 0  9995
2 43622  55.1722 132.5567 0005337 294.6011 200.7757  1.86232042 13719
BEIDOU-3 M14 (C33)      
1 43623U 18072B   20269.42758329 -.00000013  00000-0  00000-0 0  9990
2 43623  55.1740 132.5443 0004560 327.8232 336.7212  1.86232095 13718
BEIDOU-3 M15 (C34)      
1 43647U 18078A   20269.00622119 -.00000116  00000-0  10000-3 0  9991
2 43647  55.2108  12.2129 0005223 345.5077 291.6593  1.86232542 13223
BEIDOU-3 M16 (C35)      
1 43648U 18078B   20269.14212718 -.00000116  00000-0  10000-3 0  9997
2 43648  55.2069  12.2166 0003115   0.4624 276.7415  1.86232017 13239
BEIDOU-3 G1 (C59)       
1 43683U 18085A   20269.57656745 -.00000302  00000-0  00000-0 0  9996
2 43683   1.5577 250.3812 0004175 345.2503 116.7600  1.00275817  7101
BEIDOU-3 M17 (C36)      
1 43706U 18093A   20269.61246635  .00000027  00000-0  00000-0 0  9992
2 43706  54.6024 253.5311 0012129 264.9687 223.5010  1.86231905 12595
BEIDOU-3 M18 (C37)      
1 43707U 18093B   20269.56617388  .00000027  00000-0  00000+0 0  9993
2 43707  54.6025 253.5235 0010526 283.1032 264.9361  1.86232119 12594
BEIDOU-3 IGSO-1 (C38)   
1 44204U 19023A   20269.41365431 -.00000190  00000-0  10000-3 0  9990
2 44204  55.6413  59.8137 0018811 179.6331  27.0403  1.00263931  5390
BEIDOU-2 G8             
1 44231U 19027A   20269.55267466 -.00000270  00000-0  00000-0 0  9993
2 44231   0.7643 300.8428 0007868 265.2169 142.2304  1.00275268  5126
BEIDOU-3 IGSO-2 (C39)   
1 44337U 19035A   20269.39011723 -.00000163  00000-0  00000+0 0  9994
2 44337  55.0739 177.3960 0014100 183.7186 250.9103  1.00260824  4732
BEIDOU-3 M23 (C45)      
1 44542U 19061A   20269.36643649  .00000030  00000-0  10000-3 0  9993
2 44542  54.8247 253.5584 0009436 308.8114  59.1397  1.86231512  6852
BEIDOU-3 M24 (C46)      
1 44543U 19061B   20269.49238481  .00000029  00000-0  10000-3 0  9990
2 44543  54.8234 253.5238 0007127 294.4409  68.4707  1.86231874  6867
BEIDOU-3 IGSO-3         
1 44709U 19073A   20269.34569694 -.00000138  00000-0  10000-3 0  9996
2 44709  58.2465 302.8822 0025340 192.4291  98.5303  1.00255786  3480
BEIDOU-3 M21            
1 44793U 19078A   20269.31627676 -.00000117  00000-0  10000-3 0  9993
2 44793  55.0592  12.3002 0005116 353.7102  86.0934  1.86232106  5719
BEIDOU-3 M22            
1 44794U 19078B   20269.38555993 -.00000118  00000-0  10000-3 0  9994
2 44794  55.0333  12.3022 0003127 346.3271  50.4045  1.86232612  5710
BEIDOU-3 M19            
1 44864U 19090A   20269.49689775 -.00000013  00000-0  00000+0 0  9993
2 44864  55.1067 132.7946 0014224 264.7581  41.3066  1.86232057  5290
BEIDOU-3 M20            
1 44865U 19090B   20269.36152433 -.00000014  00000-0  10000-3 0  9992
2 44865  55.1096 132.8292 0013322 282.4383  22.8014  1.86232026  5274
BEIDOU-3 G2             
1 45344U 20017A   20269.49282100 -.00000163  00000-0  00000-0 0  9996
2 45344   2.8075 330.1071 0002449 192.2005  99.8674  1.00270609  2298
BEIDOU-3 G3             
1 45807U 20040A   20269.49884027 -.00000378  00000-0  00000-0 0  9990
2 45807   2.8956 298.6370 0006552 353.5933   2.5490  1.00278390  1102
